$$SOE
2461302.500000000, A.D. 2026-Sep-19 00:00:00.0000, 2.912622258056481E+08, -1.087505078188832E+08, 2.388811945074096E+07,
2461309.500000000, A.D. 2026-Sep-26 00:00:00.0000, 2.936317475798978E+08, -9.603592105790854E+07, 2.280825488508944E+07,
2461316.500000000, A.D. 2026-Oct-03 00:00:00.0000, 2.955218162257582E+08, -8.316461607263759E+07, 2.169115286932895E+07,
2461323.500000000, A.D. 2026-Oct-10 00:00:00.0000, 2.969198237162162E+08, -7.015493291835046E+07, 2.053793880586196E+07,
2461330.500000000, A.D. 2026-Oct-17 00:00:00.0000, 2.978137803844687E+08, -5.702625353776838E+07, 1.934986476133409E+07,
2461337.500000000, A.D. 2026-Oct-24 00:00:00.0000, 2.981924065377100E+08, -4.379899892092129E+07, 1.812831349900443E+07,
2461344.500000000, A.D. 2026-Oct-31 00:00:00.0000, 2.980452283021919E+08, -3.049461836356516E+07, 1.687480193183797E+07,
2461351.500000000, A.D. 2026-Nov-07 00:00:00.0000, 2.973626774005030E+08, -1.713556988097508E+07, 1.559098385969616E+07,
2461358.500000000, A.D. 2026-Nov-14 00:00:00.0000, 2.961361942554834E+08, -3.745290039132737E+06, 1.427865192562234E+07,
2461365.500000000, A.D. 2026-Nov-21 00:00:00.0000, 2.943583316504028E+08, 9.651848284407908E+06, 1.293973889387798E+07,
2461372.500000000, A.D. 2026-Nov-28 00:00:00.0000, 2.920228568312780E+08, 2.303058791590390E+07, 1.157631797621451E+07,
2461379.500000000, A.D. 2026-Dec-05 00:00:00.0000, 2.891248543751220E+08, 3.636484912038692E+07, 1.019060170101029E+07,
2461386.500000000, A.D. 2026-Dec-12 00:00:00.0000, 2.856608285345867E+08, 4.962780462884253E+07, 8.784939452004904E+06,
2461393.500000000, A.D. 2026-Dec-19 00:00:00.0000, 2.816288015842319E+08, 6.279196824493170E+07, 7.361813750025280E+06,
2461400.500000000, A.D. 2026-Dec-26 00:00:00.0000, 2.770284063211805E+08, 7.582929622728308E+07, 5.923835134187281E+06,
2461407.500000000, A.D. 2027-Jan-02 00:00:00.0000, 2.718609712001283E+08, 8.871130107413451E+07, 4.473735534556545E+06,
2461414.500000000, A.D. 2027-Jan-09 00:00:00.0000, 2.661295963701907E+08, 1.014091772753583E+08, 3.014360083044961E+06,
2461421.500000000, A.D. 2027-Jan-16 00:00:00.0000, 2.598392187909173E+08, 1.138939382917022E+08, 1.548657343047976E+06,
2461428.500000000, A.D. 2027-Jan-23 00:00:00.0000, 2.529966646588556E+08, 1.261365636658732E+08, 7.966796431725472E+04,
2461435.500000000, A.D. 2027-Jan-30 00:00:00.0000, 2.456106876196798E+08, 1.381081548515813E+08, -1.389488210276894E+06,
2461442.500000000, A.D. 2027-Feb-06 00:00:00.0000, 2.376919916395701E+08, 1.497800984263135E+08, -2.855626514511652E+06,
2461449.500000000, A.D. 2027-Feb-13 00:00:00.0000, 2.292532367303895E+08, 1.611242359392607E+08, -4.315513044313863E+06,
2461456.500000000, A.D. 2027-Feb-20 00:00:00.0000, 2.203090240875130E+08, 1.721130373991442E+08, -5.765881147826418E+06,
2461463.500000000, A.D. 2027-Feb-27 00:00:00.0000, 2.108758613213311E+08, 1.827197727891462E+08, -7.203449017167360E+06,
2461470.500000000, A.D. 2027-Mar-06 00:00:00.0000, 2.009721104553292E+08, 1.929186809584161E+08, -8.624938280307278E+06,
2461477.500000000, A.D. 2027-Mar-13 00:00:00.0000, 1.906179171317123E+08, 2.026851352833168E+08, -1.002709302886707E+07,
2461484.500000000, A.D. 2027-Mar-20 00:00:00.0000, 1.798351203680728E+08, 2.119958026072592E+08, -1.140669897449118E+07,
2461491.500000000, A.D. 2027-Mar-27 00:00:00.0000, 1.686471439751373E+08, 2.208287923238918E+08, -1.276060251186322E+07,
2461498.500000000, A.D. 2027-Apr-03 00:00:00.0000, 1.570788711644646E+08, 2.291637931178673E+08, -1.408572942007773E+07,
2461505.500000000, A.D. 2027-Apr-10 00:00:00.0000, 1.451565041213528E+08, 2.369821951732490E+08, -1.537910291814585E+07,
2461512.500000000, A.D. 2027-Apr-17 00:00:00.0000, 1.329074106222366E+08, 2.442671959167490E+08, -1.663786080124596E+07,
2461519.500000000, A.D. 2027-Apr-24 00:00:00.0000, 1.203599601172866E+08, 2.510038876686760E+08, -1.785927141306785E+07,
2461526.500000000, A.D. 2027-May-01 00:00:00.0000, 1.075433521339133E+08, 2.571793260649985E+08, -1.904074824974374E+07,
2461533.500000000, A.D. 2027-May-08 00:00:00.0000, 9.448744000553042E+07, 2.627825792672091E+08, -2.017986296757558E+07,
2461540.500000000, A.D. 2027-May-15 00:00:00.0000, 8.122255118830916E+07, 2.678047586128832E+08, -2.127435642390659E+07,
2461547.500000000, A.D. 2027-May-22 00:00:00.0000, 6.777930531888369E+07, 2.722390282331571E+08, -2.232214770033593E+07,
2461554.500000000, A.D. 2027-May-29 00:00:00.0000, 5.418843597814146E+07, 2.760805927371166E+08, -2.332134146276273E+07,
2461561.500000000, A.D. 2027-Jun-05 00:00:00.0000, 4.048061951019602E+07, 2.793266670485643E+08, -2.427023346043871E+07,
2461568.500000000, A.D. 2027-Jun-12 00:00:00.0000, 2.668631111286734E+07, 2.819764300899572E+08, -2.516731395940819E+07,
2461575.500000000, A.D. 2027-Jun-19 00:00:00.0000, 1.283558980522431E+07, 2.840309629255134E+08, -2.601126920934071E+07,
2461582.500000000, A.D. 2027-Jun-26 00:00:00.0000, -1.041985821497999E+06, 2.854931728730152E+08, -2.680098108039623E+07,
2461589.500000000, A.D. 2027-Jul-03 00:00:00.0000, -1.491750963947693E+07, 2.863677055176502E+08, -2.753552500224721E+07,
2461596.500000000, A.D. 2027-Jul-10 00:00:00.0000, -2.876284680577077E+07, 2.866608466486063E+08, -2.821416635297346E+07,
2461603.500000000, A.D. 2027-Jul-17 00:00:00.0000, -4.255073869778047E+07, 2.863804161122034E+08, -2.883635546568608E+07,
2461610.500000000, A.D. 2027-Jul-24 00:00:00.0000, -5.625489348844833E+07, 2.855356555121304E+08, -2.940172144162770E+07,
2461617.500000000, A.D. 2027-Jul-31 00:00:00.0000, -6.985006193629800E+07, 2.841371119043701E+08, -2.991006496065825E+07,
2461624.500000000, A.D. 2027-Aug-07 00:00:00.0000, -8.331209885511753E+07, 2.821965204499207E+08, -3.036135015382797E+07,
2461631.500000000, A.D. 2027-Aug-14 00:00:00.0000, -9.661801305096431E+07, 2.797266874628000E+08, -3.075569553076331E+07,
2461638.500000000, A.D. 2027-Aug-21 00:00:00.0000, -1.097460057614713E+08, 2.767413720049005E+08, -3.109336446954820E+07,
2461645.500000000, A.D. 2027-Aug-28 00:00:00.0000, -1.226754949744831E+08, 2.732551685542746E+08, -3.137475564876249E+07,
2461652.500000000, A.D. 2027-Sep-04 00:00:00.0000, -1.353871277238463E+08, 2.692833943978230E+08, -3.160039326411673E+07,
2461659.500000000, A.D. 2027-Sep-11 00:00:00.0000, -1.478627827376789E+08, 2.648419820302239E+08, -3.177091709176649E+07,
2461666.500000000, A.D. 2027-Sep-18 00:00:00.0000, -1.600855643361354E+08, 2.599473766556700E+08, -3.188707258054587E+07,
2461673.500000000, A.D. 2027-Sep-25 00:00:00.0000, -1.720397884005004E+08, 2.546164392897512E+08, -3.194970110260487E+07,
2461680.500000000, A.D. 2027-Oct-02 00:00:00.0000, -1.837109613805834E+08, 2.488663559052886E+08, -3.195973045466064E+07,
2461687.500000000, A.D. 2027-Oct-09 00:00:00.0000, -1.950857533300584E+08, 2.427145528883632E+08, -3.191816568517884E+07,
2461694.500000000, A.D. 2027-Oct-16 00:00:00.0000, -2.061519658726716E+08, 2.361786188904533E+08, -3.182608031643403E+07,
2461701.500000000, A.D. 2027-Oct-23 00:00:00.0000, -2.168984957474770E+08, 2.292762330982372E+08, -3.168460803102948E+07,
2461708.500000000, A.D. 2027-Oct-30 00:00:00.0000, -2.273152944004442E+08, 2.220251004615711E+08, -3.149493484039603E+07,
2461715.500000000, A.D. 2027-Nov-06 00:00:00.0000, -2.373933255591443E+08, 2.144428948586858E+08, -3.125829155920272E+07,
2461722.500000000, A.D. 2027-Nov-13 00:00:00.0000, -2.471245234763877E+08, 2.065472079141380E+08, -3.097594658801404E+07,
2461729.500000000, A.D. 2027-Nov-20 00:00:00.0000, -2.565017495556943E+08, 1.983555010228631E+08, -3.064919945283740E+07,
2461736.500000000, A.D. 2027-Nov-27 00:00:00.0000, -2.655187462822194E+08, 1.898850632334127E+08, -3.027937500165744E+07,
2461743.500000000, A.D. 2027-Dec-04 00:00:00.0000, -2.741700909677099E+08, 1.811529755737187E+08, -2.986781799050857E+07,
2461750.500000000, A.D. 2027-Dec-11 00:00:00.0000, -2.824511502738402E+08, 1.721760805168875E+08, -2.941588807635684E+07,
2461757.500000000, A.D. 2027-Dec-18 00:00:00.0000, -2.903580355839351E+08, 1.629709558966193E+08, -2.892495525262783E+07,
2461764.500000000, A.D. 2027-Dec-25 00:00:00.0000, -2.978875593592947E+08, 1.535538929147910E+08, -2.839639572123598E+07,
2461771.500000000, A.D. 2028-Jan-01 00:00:00.0000, -3.050371926756868E+08, 1.439408779052126E+08, -2.783158818175744E+07,
$$EOE